CCSDS_OMM_VERS = 2.0
CREATION_DATE  = 
ORIGINATOR     = 

OBJECT_NAME    = UNKNOWN
OBJECT_ID      = 
CENTER_NAME    = EARTH
REF_FRAME      = TEME
TIME_SYSTEM    = UTC
MEAN_ELEMENT_THEORY = SGP/SGP4

EPOCH          = 2026-02-02T06:21:18.186912
MEAN_MOTION    = 13.99262810
ECCENTRICITY   = .0015723
INCLINATION    = 82.5484
RA_OF_ASC_NODE = 36.5396
ARG_OF_PERICENTER = 21.4035
MEAN_ANOMALY   = 338.7788

EPHEMERIS_TYPE = 0
CLASSIFICATION_TYPE = U
NORAD_CAT_ID   = 270215
ELEMENT_SET_NO = 999
REV_AT_EPOCH   = 31443
BSTAR          = .20554947E-2
MEAN_MOTION_DOT = .3001E-4
MEAN_MOTION_DDOT = 0

CCSDS_OMM_VERS = 2.0
CREATION_DATE  = 
ORIGINATOR     = 

OBJECT_NAME    = UNKNOWN
OBJECT_ID      = 
CENTER_NAME    = EARTH
REF_FRAME      = TEME
TIME_SYSTEM    = UTC
MEAN_ELEMENT_THEORY = SGP/SGP4

EPOCH          = 2026-01-31T05:23:33.954720
MEAN_MOTION    = 13.06017987
ECCENTRICITY   = .00331877
INCLINATION    = 90.3213
RA_OF_ASC_NODE = 13.0355
ARG_OF_PERICENTER = 118.2732
MEAN_ANOMALY   = 242.1750

EPHEMERIS_TYPE = 0
CLASSIFICATION_TYPE = U
NORAD_CAT_ID   = 270216
ELEMENT_SET_NO = 999
REV_AT_EPOCH   = 29069
BSTAR          = .15181555E-2
MEAN_MOTION_DOT = .507E-5
MEAN_MOTION_DDOT = 0

CCSDS_OMM_VERS = 2.0
CREATION_DATE  = 
ORIGINATOR     = 

OBJECT_NAME    = UNKNOWN
OBJECT_ID      = 
CENTER_NAME    = EARTH
REF_FRAME      = TEME
TIME_SYSTEM    = UTC
MEAN_ELEMENT_THEORY = SGP/SGP4

EPOCH          = 2026-02-14T18:10:46.337664
MEAN_MOTION    = 14.48438615
ECCENTRICITY   = .00312324
INCLINATION    = 81.2090
RA_OF_ASC_NODE = 65.8930
ARG_OF_PERICENTER = 93.0486
MEAN_ANOMALY   = 267.4280

EPHEMERIS_TYPE = 0
CLASSIFICATION_TYPE = U
NORAD_CAT_ID   = 270220
ELEMENT_SET_NO = 999
REV_AT_EPOCH   = 32102
BSTAR          = .11357624E-2
MEAN_MOTION_DOT = .4296E-4
MEAN_MOTION_DDOT = 0

CCSDS_OMM_VERS = 2.0
CREATION_DATE  = 
ORIGINATOR     = 

OBJECT_NAME    = UNKNOWN
OBJECT_ID      = 
CENTER_NAME    = EARTH
REF_FRAME      = TEME
TIME_SYSTEM    = UTC
MEAN_ELEMENT_THEORY = SGP/SGP4

EPOCH          = 2026-01-31T20:50:00.180960
MEAN_MOTION    = 11.85920028
ECCENTRICITY   = .10533141
INCLINATION    = 83.1594
RA_OF_ASC_NODE = 89.0647
ARG_OF_PERICENTER = 168.3295
MEAN_ANOMALY   = 194.4386

EPHEMERIS_TYPE = 0
CLASSIFICATION_TYPE = U
NORAD_CAT_ID   = 270221
ELEMENT_SET_NO = 999
REV_AT_EPOCH   = 26575
BSTAR          = -.34157808E-3
MEAN_MOTION_DOT = -.96E-6
MEAN_MOTION_DDOT = 0

CCSDS_OMM_VERS = 2.0
CREATION_DATE  = 
ORIGINATOR     = 

OBJECT_NAME    = UNKNOWN
OBJECT_ID      = 
CENTER_NAME    = EARTH
REF_FRAME      = TEME
TIME_SYSTEM    = UTC
MEAN_ELEMENT_THEORY = SGP/SGP4

EPOCH          = 2026-01-29T15:07:21.627552
MEAN_MOTION    = 12.95514638
ECCENTRICITY   = .0033319
INCLINATION    = 90.2502
RA_OF_ASC_NODE = 3.3144
ARG_OF_PERICENTER = 206.9122
MEAN_ANOMALY   = 153.0271

EPHEMERIS_TYPE = 0
CLASSIFICATION_TYPE = U
NORAD_CAT_ID   = 270222
ELEMENT_SET_NO = 999
REV_AT_EPOCH   = 28892
BSTAR          = .19557794E-2
MEAN_MOTION_DOT = .561E-5
MEAN_MOTION_DDOT = 0

CCSDS_OMM_VERS = 2.0
CREATION_DATE  = 
ORIGINATOR     = 

OBJECT_NAME    = UNKNOWN
OBJECT_ID      = 
CENTER_NAME    = EARTH
REF_FRAME      = TEME
TIME_SYSTEM    = UTC
MEAN_ELEMENT_THEORY = SGP/SGP4

EPOCH          = 2026-02-05T08:29:27.208896
MEAN_MOTION    = 12.24561002
ECCENTRICITY   = .01398724
INCLINATION    = 74.0075
RA_OF_ASC_NODE = 269.9365
ARG_OF_PERICENTER = 276.7561
MEAN_ANOMALY   = 81.7576

EPHEMERIS_TYPE = 0
CLASSIFICATION_TYPE = U
NORAD_CAT_ID   = 270228
ELEMENT_SET_NO = 999
REV_AT_EPOCH   = 27247
BSTAR          = .71439318E-4
MEAN_MOTION_DOT = -.8E-7
MEAN_MOTION_DDOT = 0

CCSDS_OMM_VERS = 2.0
CREATION_DATE  = 
ORIGINATOR     = 

OBJECT_NAME    = UNKNOWN
OBJECT_ID      = 
CENTER_NAME    = EARTH
REF_FRAME      = TEME
TIME_SYSTEM    = UTC
MEAN_ELEMENT_THEORY = SGP/SGP4

EPOCH          = 2026-01-31T00:53:06.631584
MEAN_MOTION    = 13.91177413
ECCENTRICITY   = .01418096
INCLINATION    = 98.9385
RA_OF_ASC_NODE = 316.4348
ARG_OF_PERICENTER = 272.8477
MEAN_ANOMALY   = 85.6460

EPHEMERIS_TYPE = 0
CLASSIFICATION_TYPE = U
NORAD_CAT_ID   = 270229
ELEMENT_SET_NO = 999
REV_AT_EPOCH   = 30885
BSTAR          = .64484183E-3
MEAN_MOTION_DOT = .837E-5
MEAN_MOTION_DDOT = 0

CCSDS_OMM_VERS = 2.0
CREATION_DATE  = 
ORIGINATOR     = 

OBJECT_NAME    = UNKNOWN
OBJECT_ID      = 
CENTER_NAME    = EARTH
REF_FRAME      = TEME
TIME_SYSTEM    = UTC
MEAN_ELEMENT_THEORY = SGP/SGP4

EPOCH          = 2026-02-04T04:09:04.671936
MEAN_MOTION    = 12.20881262
ECCENTRICITY   = .03389645
INCLINATION    = 103.0409
RA_OF_ASC_NODE = 7.6137
ARG_OF_PERICENTER = 331.7072
MEAN_ANOMALY   = 26.5930

EPHEMERIS_TYPE = 0
CLASSIFICATION_TYPE = U
NORAD_CAT_ID   = 270230
ELEMENT_SET_NO = 999
REV_AT_EPOCH   = 26963
BSTAR          = .20991681E-1
MEAN_MOTION_DOT = .259E-4
MEAN_MOTION_DDOT = 0

CCSDS_OMM_VERS = 2.0
CREATION_DATE  = 
ORIGINATOR     = 

OBJECT_NAME    = UNKNOWN
OBJECT_ID      = 
CENTER_NAME    = EARTH
REF_FRAME      = TEME
TIME_SYSTEM    = UTC
MEAN_ELEMENT_THEORY = SGP/SGP4

EPOCH          = 2026-02-04T06:18:40.611456
MEAN_MOTION    = 14.38457685
ECCENTRICITY   = .00317049
INCLINATION    = 98.6255
RA_OF_ASC_NODE = 41.0245
ARG_OF_PERICENTER = 207.3970
MEAN_ANOMALY   = 152.5546

EPHEMERIS_TYPE = 0
CLASSIFICATION_TYPE = U
NORAD_CAT_ID   = 270233
ELEMENT_SET_NO = 999
REV_AT_EPOCH   = 31618
BSTAR          = .18241334E-3
MEAN_MOTION_DOT = .515E-5
MEAN_MOTION_DDOT = 0

CCSDS_OMM_VERS = 2.0
CREATION_DATE  = 
ORIGINATOR     = 

OBJECT_NAME    = UNKNOWN
OBJECT_ID      = 
CENTER_NAME    = EARTH
REF_FRAME      = TEME
TIME_SYSTEM    = UTC
MEAN_ELEMENT_THEORY = SGP/SGP4

EPOCH          = 2026-01-31T15:06:57.502944
MEAN_MOTION    = 12.95507750
ECCENTRICITY   = .00293612
INCLINATION    = 90.2372
RA_OF_ASC_NODE = 0.5002
ARG_OF_PERICENTER = 162.9464
MEAN_ANOMALY   = 197.2649

EPHEMERIS_TYPE = 0
CLASSIFICATION_TYPE = U
NORAD_CAT_ID   = 270236
ELEMENT_SET_NO = 999
REV_AT_EPOCH   = 28468
BSTAR          = -.49364117E-3
MEAN_MOTION_DOT = -.132E-5
MEAN_MOTION_DDOT = 0

CCSDS_OMM_VERS = 2.0
CREATION_DATE  = 
ORIGINATOR     = 

OBJECT_NAME    = UNKNOWN
OBJECT_ID      = 
CENTER_NAME    = EARTH
REF_FRAME      = TEME
TIME_SYSTEM    = UTC
MEAN_ELEMENT_THEORY = SGP/SGP4

EPOCH          = 2026-01-30T20:54:55.541088
MEAN_MOTION    = 12.96066494
ECCENTRICITY   = .00225877
INCLINATION    = 90.2460
RA_OF_ASC_NODE = 4.1160
ARG_OF_PERICENTER = 270.6345
MEAN_ANOMALY   = 89.2187

EPHEMERIS_TYPE = 0
CLASSIFICATION_TYPE = U
NORAD_CAT_ID   = 270237
ELEMENT_SET_NO = 999
REV_AT_EPOCH   = 28348
BSTAR          = -.10236094E-2
MEAN_MOTION_DOT = -.284E-5
MEAN_MOTION_DDOT = 0

CCSDS_OMM_VERS = 2.0
CREATION_DATE  = 
ORIGINATOR     = 

OBJECT_NAME    = UNKNOWN
OBJECT_ID      = 
CENTER_NAME    = EARTH
REF_FRAME      = TEME
TIME_SYSTEM    = UTC
MEAN_ELEMENT_THEORY = SGP/SGP4

EPOCH          = 2026-01-24T08:16:50.087424
MEAN_MOTION    = 12.80790081
ECCENTRICITY   = .01127865
INCLINATION    = 63.5232
RA_OF_ASC_NODE = 64.1410
ARG_OF_PERICENTER = 68.2594
MEAN_ANOMALY   = 293.0361

EPHEMERIS_TYPE = 0
CLASSIFICATION_TYPE = U
NORAD_CAT_ID   = 270238
ELEMENT_SET_NO = 999
REV_AT_EPOCH   = 27993
BSTAR          = .11674628E-2
MEAN_MOTION_DOT = .201E-5
MEAN_MOTION_DDOT = 0

CCSDS_OMM_VERS = 2.0
CREATION_DATE  = 
ORIGINATOR     = 

OBJECT_NAME    = UNKNOWN
OBJECT_ID      = 
CENTER_NAME    = EARTH
REF_FRAME      = TEME
TIME_SYSTEM    = UTC
MEAN_ELEMENT_THEORY = SGP/SGP4

EPOCH          = 2026-01-23T01:10:06.795264
MEAN_MOTION    = 12.27391986
ECCENTRICITY   = .01610091
INCLINATION    = 82.4316
RA_OF_ASC_NODE = 304.3016
ARG_OF_PERICENTER = 290.6485
MEAN_ANOMALY   = 67.7386

EPHEMERIS_TYPE = 0
CLASSIFICATION_TYPE = U
NORAD_CAT_ID   = 270239
ELEMENT_SET_NO = 999
REV_AT_EPOCH   = 26711
BSTAR          = .57897235E-2
MEAN_MOTION_DOT = .694E-5
MEAN_MOTION_DDOT = 0

CCSDS_OMM_VERS = 2.0
CREATION_DATE  = 
ORIGINATOR     = 

OBJECT_NAME    = UNKNOWN
OBJECT_ID      = 
CENTER_NAME    = EARTH
REF_FRAME      = TEME
TIME_SYSTEM    = UTC
MEAN_ELEMENT_THEORY = SGP/SGP4

EPOCH          = 2026-02-14T17:32:30.786432
MEAN_MOTION    = 12.64064353
ECCENTRICITY   = .00809434
INCLINATION    = 82.4486
RA_OF_ASC_NODE = 203.8357
ARG_OF_PERICENTER = 135.9808
MEAN_ANOMALY   = 224.7767

EPHEMERIS_TYPE = 0
CLASSIFICATION_TYPE = U
NORAD_CAT_ID   = 270240
ELEMENT_SET_NO = 999
REV_AT_EPOCH   = 27651
BSTAR          = .24252405E-1
MEAN_MOTION_DOT = .451E-4
MEAN_MOTION_DDOT = 0

CCSDS_OMM_VERS = 2.0
CREATION_DATE  = 
ORIGINATOR     = 

OBJECT_NAME    = UNKNOWN
OBJECT_ID      = 
CENTER_NAME    = EARTH
REF_FRAME      = TEME
TIME_SYSTEM    = UTC
MEAN_ELEMENT_THEORY = SGP/SGP4

EPOCH          = 2026-01-28T04:10:30.347040
MEAN_MOTION    = 12.94312184
ECCENTRICITY   = .00285174
INCLINATION    = 90.2467
RA_OF_ASC_NODE = 3.1565
ARG_OF_PERICENTER = 259.9383
MEAN_ANOMALY   = 99.8518

EPHEMERIS_TYPE = 0
CLASSIFICATION_TYPE = U
NORAD_CAT_ID   = 270241
ELEMENT_SET_NO = 999
REV_AT_EPOCH   = 28259
BSTAR          = .8731273E-3
MEAN_MOTION_DOT = .25E-5
MEAN_MOTION_DDOT = 0

CCSDS_OMM_VERS = 2.0
CREATION_DATE  = 
ORIGINATOR     = 

OBJECT_NAME    = UNKNOWN
OBJECT_ID      = 
CENTER_NAME    = EARTH
REF_FRAME      = TEME
TIME_SYSTEM    = UTC
MEAN_ELEMENT_THEORY = SGP/SGP4

EPOCH          = 2026-01-31T14:50:02.518080
MEAN_MOTION    = 12.98553140
ECCENTRICITY   = .00451822
INCLINATION    = 90.2405
RA_OF_ASC_NODE = 4.4563
ARG_OF_PERICENTER = 9.1171
MEAN_ANOMALY   = 351.0761

EPHEMERIS_TYPE = 0
CLASSIFICATION_TYPE = U
NORAD_CAT_ID   = 270242
ELEMENT_SET_NO = 999
REV_AT_EPOCH   = 28372
BSTAR          = .12000785E-2
MEAN_MOTION_DOT = .363E-5
MEAN_MOTION_DDOT = 0

